[{"OBJECT_NAME":"STARLINK-6120","OBJECT_ID":"2023-046AR","EPOCH":"2026-03-09T22:00:01.999584","MEAN_MOTION":15.07928727,"ECCENTRICITY":0.00010774,"INCLINATION":43.0007,"RA_OF_ASC_NODE":144.6551,"ARG_OF_PERICENTER":306.9184,"MEAN_ANOMALY":174.73,"EPHEMERIS_TYPE":0,"CLASSIFICATION_TYPE":"U","NORAD_CAT_ID":56131,"ELEMENT_SET_NO":999,"REV_AT_EPOCH":563,"BSTAR":0.002764446,"MEAN_MOTION_DOT":0.00043222,"MEAN_MOTION_DDOT":0},{"OBJECT_NAME":"IRIDIUM 33 DEB","OBJECT_ID":"1997-051QE","EPOCH":"2026-03-07T09:35:18.798432","MEAN_MOTION":15.07266806,"ECCENTRICITY":0.0013423,"INCLINATION":86.3519,"RA_OF_ASC_NODE":312.8742,"ARG_OF_PERICENTER":171.2899,"MEAN_ANOMALY":188.8573,"EPHEMERIS_TYPE":0,"CLASSIFICATION_TYPE":"U","NORAD_CAT_ID":35484,"ELEMENT_SET_NO":999,"REV_AT_EPOCH":63287,"BSTAR":0.0040001,"MEAN_MOTION_DOT":0.00060878,"MEAN_MOTION_DDOT":0}]
